{
"type": "FeatureCollection",
"name": "cesfam",
"crs": { "type": "name", "properties": { "name": "urn:ogc:def:crs:EPSG::32718" } },
"features": [
{ "type": "Feature", "properties": { "COD_ANT": "20-907", "COD_VIG": 200312.0, "COD_M_ANT": null, "COD_M_NUEV": 0.0, "COD_REG": 8.0, "NOM_REG": "Región del Bíobío", "COD_DEP": 20.0, "DEPENDENC": "Servicio de Salud Biobío", "PERTENENCI": "Perteneciente al Sistema Nacional de Servicios de Salud", "TIPO": "Centro de Salud Familiar (CESFAM)", "AMBITO": "Establecimiento de Salud", "NOMBRE": "Centro de Salud Familiar Entre Ríos", "CERTIFI": "Certificado como CESFAM", "DEP_ADM": "Municipal", "NIVEL": "Primario", "COD_COM": "08301", "NOM_COM": "Los Ángeles", "VIA": "Avenida", "NUMERO": 2201.0, "DIRECCION": "Oriente", "FONO": 432333543.0, "F_INICIO": 42828.0, "URGENCIA": "NO", "TIPO_URGE": "No Aplica", "CLAS_SAPU": "No Aplica", "LATITUD": -37.49144, "LONGITUD": -72.32788, "PRESTADOR": "Público", "ESTADO": "Vigente en operación habitual", "COMPLEJIDA": "Baja Complejidad", "TIPO_ATEN": "Atención Abierta-Ambulatoria", "CUT_COMUNA": "08301", "CUT_REGION": "08", "CUT_PROVIN": "083", "NOM_REGION": "Biobío", "NOM_PROVIN": "Biobío", "NOM_COMUNA": "Los Angeles", "IR_GOOGLE": "https://www.google.cl/maps/dir//-37.491439999999997,-72.327879999999993", "SIMBOLOGIA": "Atención Primaria de Salud (APS)", "GEOM_3857": "0101000020110F00006D7764B1CBB65EC10AE94F972D3251C1" }, "geometry": { "type": "Point", "coordinates": [ 736238.240181301953271, 5847254.076488476246595 ] } },
{ "type": "Feature", "properties": { "COD_ANT": "20-311", "COD_VIG": 120311.0, "COD_M_ANT": null, "COD_M_NUEV": 0.0, "COD_REG": 8.0, "NOM_REG": "Región del Bíobío", "COD_DEP": 20.0, "DEPENDENC": "Servicio de Salud Biobío", "PERTENENCI": "Perteneciente al Sistema Nacional de Servicios de Salud", "TIPO": "Centro de Salud Familiar (CESFAM)", "AMBITO": "Establecimiento de Salud", "NOMBRE": "Centro de Salud Familiar Paillihue", "CERTIFI": "Certificado como CESFAM", "DEP_ADM": "Municipal", "NIVEL": "Primario", "COD_COM": "08301", "NOM_COM": "Los Ángeles", "VIA": "Calle", "NUMERO": 437.0, "DIRECCION": "Juan Guzmán", "FONO": 800500805.0, "F_INICIO": 38716.0, "URGENCIA": "NO", "TIPO_URGE": "No Aplica", "CLAS_SAPU": "No Aplica", "LATITUD": -37.48551, "LONGITUD": -72.3393, "PRESTADOR": "Público", "ESTADO": "Vigente en operación habitual", "COMPLEJIDA": "Baja Complejidad", "TIPO_ATEN": "Atención Abierta-Ambulatoria", "CUT_COMUNA": "08301", "CUT_REGION": "08", "CUT_PROVIN": "083", "NOM_REGION": "Biobío", "NOM_PROVIN": "Biobío", "NOM_COMUNA": "Los Angeles", "IR_GOOGLE": "https://www.google.cl/maps/dir//-37.485509999999998,-72.339299999999994", "SIMBOLOGIA": "Atención Primaria de Salud (APS)", "GEOM_3857": "0101000020110F0000FFF5948209B85EC19FD91F9B5D3151C1" }, "geometry": { "type": "Point", "coordinates": [ 735247.036694260546938, 5847940.774225004017353 ] } },
{ "type": "Feature", "properties": { "COD_ANT": "20-309", "COD_VIG": 120309.0, "COD_M_ANT": null, "COD_M_NUEV": 0.0, "COD_REG": 8.0, "NOM_REG": "Región del Bíobío", "COD_DEP": 20.0, "DEPENDENC": "Servicio de Salud Biobío", "PERTENENCI": "Perteneciente al Sistema Nacional de Servicios de Salud", "TIPO": "Centro de Salud Familiar (CESFAM)", "AMBITO": "Establecimiento de Salud", "NOMBRE": "Centro de Salud Familiar 2 Septiembre", "CERTIFI": "Certificado como CESFAM", "DEP_ADM": "Municipal", "NIVEL": "Primario", "COD_COM": "08301", "NOM_COM": "Los Ángeles", "VIA": "Calle", "NUMERO": 0.0, "DIRECCION": "Carlos Condell", "FONO": 800500804.0, "F_INICIO": 38716.0, "URGENCIA": "NO", "TIPO_URGE": "No Aplica", "CLAS_SAPU": "No Aplica", "LATITUD": -37.47707, "LONGITUD": -72.36524, "PRESTADOR": "Público", "ESTADO": "Vigente en operación habitual", "COMPLEJIDA": "Baja Complejidad", "TIPO_ATEN": "Atención Abierta-Ambulatoria", "CUT_COMUNA": "08301", "CUT_REGION": "08", "CUT_PROVIN": "083", "NOM_REGION": "Biobío", "NOM_PROVIN": "Biobío", "NOM_COMUNA": "Los Angeles", "IR_GOOGLE": "https://www.google.cl/maps/dir//-37.477069999999998,-72.36524", "SIMBOLOGIA": "Atención Primaria de Salud (APS)", "GEOM_3857": "0101000020110F00002D6ABF6ADBBA5EC16D1B7A9D353051C1" }, "geometry": { "type": "Point", "coordinates": [ 732979.341639288002625, 5848941.943606951273978 ] } },
{ "type": "Feature", "properties": { "COD_ANT": "20-315", "COD_VIG": 120315.0, "COD_M_ANT": null, "COD_M_NUEV": 0.0, "COD_REG": 8.0, "NOM_REG": "Región del Bíobío", "COD_DEP": 20.0, "DEPENDENC": "Servicio de Salud Biobío", "PERTENENCI": "Perteneciente al Sistema Nacional de Servicios de Salud", "TIPO": "Centro de Salud Familiar (CESFAM)", "AMBITO": "Establecimiento de Salud", "NOMBRE": "Centro de Salud Familiar Nuevo Horizonte", "CERTIFI": "Certificado como CESFAM", "DEP_ADM": "Municipal", "NIVEL": "Primario", "COD_COM": "08301", "NOM_COM": "Los Ángeles", "VIA": "Calle", "NUMERO": 2360.0, "DIRECCION": "Aguas Calientes", "FONO": 432333221.0, "F_INICIO": 38716.0, "URGENCIA": "NO", "TIPO_URGE": "No Aplica", "CLAS_SAPU": "No Aplica", "LATITUD": -37.46761, "LONGITUD": -72.38335, "PRESTADOR": "Público", "ESTADO": "Vigente en operación habitual", "COMPLEJIDA": "Baja Complejidad", "TIPO_ATEN": "Atención Abierta-Ambulatoria", "CUT_COMUNA": "08301", "CUT_REGION": "08", "CUT_PROVIN": "083", "NOM_REGION": "Biobío", "NOM_PROVIN": "Biobío", "NOM_COMUNA": "Los Angeles", "IR_GOOGLE": "https://www.google.cl/maps/dir//-37.467610000000001,-72.383349999999993", "SIMBOLOGIA": "Atención Primaria de Salud (APS)", "GEOM_3857": "0101000020110F0000CB857D6AD3BC5EC1E48A85E4E92E51C1" }, "geometry": { "type": "Point", "coordinates": [ 731406.855898872250691, 5850036.434350552968681 ] } },
{ "type": "Feature", "properties": { "COD_ANT": "20-302", "COD_VIG": 120302.0, "COD_M_ANT": null, "COD_M_NUEV": 0.0, "COD_REG": 8.0, "NOM_REG": "Región del Bíobío", "COD_DEP": 20.0, "DEPENDENC": "Servicio de Salud Biobío", "PERTENENCI": "Perteneciente al Sistema Nacional de Servicios de Salud", "TIPO": "Centro de Salud Familiar (CESFAM)", "AMBITO": "Establecimiento de Salud", "NOMBRE": "Centro de Salud Familiar Santa Fe", "CERTIFI": "Certificado como CESFAM", "DEP_ADM": "Municipal", "NIVEL": "Primario", "COD_COM": "08301", "NOM_COM": "Los Ángeles", "VIA": "Calle", "NUMERO": 0.0, "DIRECCION": "O'Higgins", "FONO": 432391006.0, "F_INICIO": 38716.0, "URGENCIA": "NO", "TIPO_URGE": "No Aplica", "CLAS_SAPU": "No Aplica", "LATITUD": -37.46584, "LONGITUD": -72.58175, "PRESTADOR": "Público", "ESTADO": "Vigente en operación habitual", "COMPLEJIDA": "Baja Complejidad", "TIPO_ATEN": "Atención Abierta-Ambulatoria", "CUT_COMUNA": "08301", "CUT_REGION": "08", "CUT_PROVIN": "083", "NOM_REGION": "Biobío", "NOM_PROVIN": "Biobío", "NOM_COMUNA": "Los Angeles", "IR_GOOGLE": "https://www.google.cl/maps/dir//-37.46584,-72.58175", "SIMBOLOGIA": "Atención Primaria de Salud (APS)", "GEOM_3857": "0101000020110F0000694BDBDC64D25EC1B8FEB2D4AB2E51C1" }, "geometry": { "type": "Point", "coordinates": [ 713863.295575893716887, 5850702.190471986308694 ] } },
{ "type": "Feature", "properties": { "COD_ANT": "20-310", "COD_VIG": 120310.0, "COD_M_ANT": null, "COD_M_NUEV": 0.0, "COD_REG": 8.0, "NOM_REG": "Región del Bíobío", "COD_DEP": 20.0, "DEPENDENC": "Servicio de Salud Biobío", "PERTENENCI": "Perteneciente al Sistema Nacional de Servicios de Salud", "TIPO": "Centro de Salud Familiar (CESFAM)", "AMBITO": "Establecimiento de Salud", "NOMBRE": "Centro de Salud Familiar Norte de Los Ángeles", "CERTIFI": "Certificado como CESFAM", "DEP_ADM": "Municipal", "NIVEL": "Primario", "COD_COM": "08301", "NOM_COM": "Los Ángeles", "VIA": "Calle", "NUMERO": 810.0, "DIRECCION": "Los Ángeles", "FONO": 432332200.0, "F_INICIO": 38716.0, "URGENCIA": "NO", "TIPO_URGE": "No Aplica", "CLAS_SAPU": "No Aplica", "LATITUD": -37.46361, "LONGITUD": -72.3619, "PRESTADOR": "Público", "ESTADO": "Vigente en operación habitual", "COMPLEJIDA": "Baja Complejidad", "TIPO_ATEN": "Atención Abierta-Ambulatoria", "CUT_COMUNA": "08301", "CUT_REGION": "08", "CUT_PROVIN": "083", "NOM_REGION": "Biobío", "NOM_PROVIN": "Biobío", "NOM_COMUNA": "Los Angeles", "IR_GOOGLE": "https://www.google.cl/maps/dir//-37.463610000000003,-72.361900000000006", "SIMBOLOGIA": "Atención Primaria de Salud (APS)", "GEOM_3857": "0101000020110F00008CE617777EBA5EC18CA55FA45D2E51C1" }, "geometry": { "type": "Point", "coordinates": [ 733316.60576713597402, 5850427.362844662740827 ] } },
{ "type": "Feature", "properties": { "COD_ANT": "20-301", "COD_VIG": 120301.0, "COD_M_ANT": null, "COD_M_NUEV": 0.0, "COD_REG": 8.0, "NOM_REG": "Región del Bíobío", "COD_DEP": 20.0, "DEPENDENC": "Servicio de Salud Biobío", "PERTENENCI": "Perteneciente al Sistema Nacional de Servicios de Salud", "TIPO": "Centro de Salud Familiar (CESFAM)", "AMBITO": "Establecimiento de Salud", "NOMBRE": "Centro de Salud Familiar Nororiente de Los Ángeles", "CERTIFI": "Certificado como CESFAM", "DEP_ADM": "Municipal", "NIVEL": "Primario", "COD_COM": "08301", "NOM_COM": "Los Ángeles", "VIA": "Calle", "NUMERO": 1558.0, "DIRECCION": "Morse", "FONO": 0.0, "F_INICIO": 38716.0, "URGENCIA": "NO", "TIPO_URGE": "No Aplica", "CLAS_SAPU": "No Aplica", "LATITUD": -37.45733, "LONGITUD": -72.34301, "PRESTADOR": "Público", "ESTADO": "Vigente en operación habitual", "COMPLEJIDA": "Baja Complejidad", "TIPO_ATEN": "Atención Abierta-Ambulatoria", "CUT_COMUNA": "08301", "CUT_REGION": "08", "CUT_PROVIN": "083", "NOM_REGION": "Biobío", "NOM_PROVIN": "Biobío", "NOM_COMUNA": "Los Angeles", "IR_GOOGLE": "https://www.google.cl/maps/dir//-37.457329999999999,-72.343010000000007", "SIMBOLOGIA": "Atención Primaria de Salud (APS)", "GEOM_3857": "0101000020110F0000392248C270B85EC11175BC76812D51C1" }, "geometry": { "type": "Point", "coordinates": [ 735007.242587888962589, 5851077.275683952495456 ] } }
]
}
