{
"type": "FeatureCollection",
"name": "limite_urbano",
"crs": { "type": "name", "properties": { "name": "urn:ogc:def:crs:EPSG::32718" } },
"features": [
{ "type": "Feature", "properties": { "objectid": 75, "comuna": "Los Angeles", "st_area_sh": 30121702.617800001, "st_length_": 44212.321116599996, "Localidad": "Los Angeles", "Entidad": "Ciudad" }, "geometry": { "type": "MultiPolygon", "coordinates": [ [ [ [ 735009.948800182202831, 5847493.117225394584239 ], [ 734569.827301187557168, 5847550.391678478568792 ], [ 734518.967266536434181, 5847536.971859343349934 ], [ 734487.44472255394794, 5847532.734448568895459 ], [ 734430.624674607184716, 5847523.862091244198382 ], [ 734389.778762828675099, 5847499.633450357243419 ], [ 734396.39330283284653, 5847393.799975551664829 ], [ 734303.788992778398097, 5847380.570784658193588 ], [ 734264.101364343892783, 5847433.487565795890987 ], [ 734178.111630155239254, 5847459.945914387702942 ], [ 734153.938407778041437, 5847463.974752457812428 ], [ 734139.990002233884297, 5847442.416112468577921 ], [ 734090.232513900613412, 5847381.006644890643656 ], [ 734056.457377049839124, 5847341.494647650048137 ], [ 734044.502629720489495, 5847335.21290935203433 ], [ 734030.265652560628951, 5847316.230273136869073 ], [ 733881.568335555610247, 5847335.21290935203433 ], [ 733761.344972868449986, 5847355.777431918308139 ], [ 733774.130060631898232, 5847455.362893775105476 ], [ 733689.055964482831769, 5847460.79576537758112 ], [ 733693.653014017734677, 5847547.972843245603144 ], [ 733697.979028411908075, 5847633.151504538953304 ], [ 733794.708011589478701, 5847614.473899438045919 ], [ 733815.90567444707267, 5847848.549287762492895 ], [ 733688.847005562158301, 5847881.663900637999177 ], [ 733686.68451456585899, 5847913.053540762513876 ], [ 733559.741308127879165, 5847935.821692423895001 ], [ 733556.339597326354124, 5848008.957437416538596 ], [ 733536.639711576281115, 5848013.882339485920966 ], [ 733562.060085192322731, 5848212.69224925711751 ], [ 733512.173054972430691, 5848247.129102516919374 ], [ 733432.971457625622861, 5848279.270698349922895 ], [ 733341.672720871632919, 5848285.100114226341248 ], [ 733286.26618776936084, 5848265.720073573291302 ], [ 733177.571018969756551, 5848162.238948093727231 ], [ 733033.206110725412145, 5848152.705968709662557 ], [ 732788.257349493680522, 5848144.429464327171445 ], [ 732604.524584719794802, 5847651.252043096348643 ], [ 732501.376365900039673, 5847641.581897579133511 ], [ 732398.228147079003975, 5847631.911752066574991 ], [ 732243.505818849196658, 5847625.464988389983773 ], [ 732198.378473113290966, 5847622.241606553085148 ], [ 732185.484945762902498, 5847741.506734563037753 ], [ 732162.921272895531729, 5847786.634080296382308 ], [ 732069.443199589964934, 5847844.654953384771943 ], [ 732127.464072675677016, 5848373.289574833586812 ], [ 732132.314933593617752, 5848418.384000346064568 ], [ 732116.70464792358689, 5848415.877080344595015 ], [ 731911.49748952081427, 5848308.821938073262572 ], [ 731792.232361510046758, 5847802.750989489257336 ], [ 731698.754288204479963, 5847793.080843973904848 ], [ 731663.297087984159589, 5847867.218626248650253 ], [ 731650.4035606313264, 5848015.494190802797675 ], [ 731579.489160193013959, 5848015.494190802797675 ], [ 731576.265778354252689, 5848215.343864765018225 ], [ 731643.956796955550089, 5848234.684155792929232 ], [ 731632.551424532895908, 5848449.398861715570092 ], [ 731617.712386183207855, 5848823.784599618986249 ], [ 731615.943650941480882, 5848861.964441560208797 ], [ 731587.164617031347007, 5849357.562395628541708 ], [ 731853.39662425161805, 5849403.710669161751866 ], [ 731844.462489677360281, 5849509.43126161582768 ], [ 731857.863691538805142, 5849534.744642909616232 ], [ 731854.885646681650542, 5849568.992158775217831 ], [ 731851.907601822866127, 5849641.954257791861892 ], [ 731844.462489677709527, 5849741.718760534189641 ], [ 731835.528355104033835, 5849786.389433401636779 ], [ 731770.398488836828619, 5849781.669337209314108 ], [ 731654.579093531472608, 5849728.267090179957449 ], [ 731445.409124424098991, 5849609.462691957131028 ], [ 731327.234468227834441, 5849589.845988778397441 ], [ 731203.418142854934558, 5849569.29288749024272 ], [ 731055.273492120439187, 5849517.75802843645215 ], [ 731006.719040577998385, 5849500.867560619488358 ], [ 731103.695857611717656, 5850021.510985461995006 ], [ 731086.550073339371011, 5850063.347605185583234 ], [ 731101.440297629334964, 5850099.08414347935468 ], [ 731113.352477060863748, 5850143.754816348664463 ], [ 731146.110970498179086, 5850230.118117226287723 ], [ 731181.847508792765439, 5850271.810745237395167 ], [ 731181.847508792765439, 5850328.393597537651658 ], [ 731223.540136804105714, 5850486.2299750065431 ], [ 731262.254719956661575, 5850685.758980482816696 ], [ 731295.013213392696343, 5850775.100326218642294 ], [ 731342.661931119975634, 5850941.870838263072073 ], [ 731387.332603987655602, 5851144.377888597548008 ], [ 731872.439898643409833, 5850889.388703845441341 ], [ 731901.122827041428536, 5850883.406129166483879 ], [ 731958.792531620711088, 5850871.377656375057995 ], [ 732006.735869781812653, 5850937.069828743115067 ], [ 732010.267392883077264, 5850959.761694001033902 ], [ 731921.972025736235082, 5850979.979951256886125 ], [ 731929.256609993288293, 5851176.41450297832489 ], [ 731933.533614844316617, 5851291.749563022516668 ], [ 732164.95766715076752, 5851131.144809875637293 ], [ 732330.113369349041022, 5851172.690598642453551 ], [ 732361.591086644679308, 5851143.597838409245014 ], [ 732417.879504703334533, 5851144.172692676074803 ], [ 732436.552319358452223, 5851240.900723519735038 ], [ 732446.084900017012842, 5851524.440217791125178 ], [ 732498.962173026287928, 5851528.243595315143466 ], [ 732539.165494192158803, 5851520.893323160707951 ], [ 732657.948484233114868, 5851582.696383329108357 ], [ 732744.995094678597525, 5851634.562093519605696 ], [ 732780.330663662985899, 5851663.409814624115825 ], [ 732893.842428144300357, 5851680.092115050181746 ], [ 732898.160395688493736, 5851357.283302934840322 ], [ 732903.831633964669891, 5851093.824099057354033 ], [ 732904.125638217199594, 5851058.975227012299001 ], [ 733062.553650793153793, 5851048.865418942645192 ], [ 733105.396975163021125, 5851046.131406774744391 ], [ 733133.990375453257002, 5851149.871756920590997 ], [ 733200.875049057416618, 5851392.540751345455647 ], [ 733330.307022434775718, 5851396.244404829107225 ], [ 733287.198069219011813, 5851119.950104152783751 ], [ 733255.679294140776619, 5850919.869804505258799 ], [ 733430.19128598482348, 5850920.718986734747887 ], [ 733528.692418099264614, 5850921.198283891193569 ], [ 733534.166503633721732, 5850941.683151816949248 ], [ 733516.59468943590764, 5850992.806742265820503 ], [ 733482.776644120924175, 5851017.882512951269746 ], [ 733401.183538841782138, 5851034.519253425300121 ], [ 733451.627633463824168, 5851278.706060060299933 ], [ 733457.474523965967819, 5851307.009578720666468 ], [ 733740.550881217233837, 5851466.038073932752013 ], [ 733967.605595331522636, 5851530.720681105740368 ], [ 733991.497619149158709, 5851154.177455979399383 ], [ 734191.542271466227248, 5851169.847199061885476 ], [ 734264.101413168362342, 5851190.578401416540146 ], [ 734455.799175027408637, 5851270.89205164462328 ], [ 734455.799175026942976, 5851639.226641524583101 ], [ 734883.206293475348502, 5851653.126060009934008 ], [ 735006.563632538309321, 5851607.952949934639037 ], [ 735006.563632539706305, 5851588.841249513439834 ], [ 734874.519156921538524, 5851392.511963395401835 ], [ 734910.990946230129339, 5851346.24808581545949 ], [ 735170.301145477104001, 5851567.610394974239171 ], [ 735170.301120855961926, 5851599.009961921721697 ], [ 735225.762099212734029, 5851592.117191224358976 ], [ 735264.347337656887248, 5851641.742079079151154 ], [ 735326.287571822758764, 5851698.210605550557375 ], [ 735114.284125806530938, 5851742.603566515259445 ], [ 735041.312178754713386, 5851732.179002651944757 ], [ 735027.412760268663988, 5851648.782491735182703 ], [ 734944.016249351785518, 5851648.78249173425138 ], [ 734930.116830866551027, 5851805.150949700735509 ], [ 734815.446628355421126, 5851798.201240461319685 ], [ 734718.150698952376842, 5851739.128711892291903 ], [ 734068.35288472531829, 5851697.43045643530786 ], [ 734071.827739347238094, 5851826.000077432021499 ], [ 734214.296778829651885, 5851926.770861457102001 ], [ 734520.083985523553565, 5852017.117081616073847 ], [ 734499.234857794828713, 5852322.904288308694959 ], [ 735142.082962777465582, 5852729.462279027327895 ], [ 735336.674821584136225, 5852795.484516834840178 ], [ 735638.987173658562824, 5852851.082190782763064 ], [ 735819.679613977321424, 5852781.585098350420594 ], [ 735857.9030148149468, 5852830.23306305333972 ], [ 735868.327578679309227, 5852899.730155484750867 ], [ 735805.780195493018255, 5852913.629573970101774 ], [ 735816.204759357031435, 5853017.875212611630559 ], [ 735941.299525730893947, 5853017.875212612561882 ], [ 735962.148653460782953, 5852931.003847077488899 ], [ 736007.321763540618122, 5852948.378120183944702 ], [ 736062.919437483767979, 5852955.327829428017139 ], [ 736111.567402186687104, 5852997.026084885932505 ], [ 736073.344001348945312, 5853031.774631097912788 ], [ 736017.746327405446209, 5853090.847159666009247 ], [ 736094.193129077204503, 5853219.416780662722886 ], [ 736413.879754259833135, 5853236.791053770110011 ], [ 736461.117285865591839, 5852863.403866770677269 ], [ 736456.864422110142186, 5852400.024491954594851 ], [ 736453.532887294772081, 5852037.246795680373907 ], [ 736531.93415937887039, 5851998.046133511699736 ], [ 736532.187157034990378, 5851995.877076574601233 ], [ 736545.221188661758788, 5851884.154445681720972 ], [ 736592.109343325952068, 5851482.237063801847398 ], [ 736605.358556797029451, 5851368.662744974717498 ], [ 736457.370421164785512, 5851371.595646373927593 ], [ 736453.532872948562726, 5851210.422187861986458 ], [ 736466.693924384657294, 5850762.876576215028763 ], [ 736460.826179354684427, 5850124.414421743713319 ], [ 736460.033742824220099, 5850038.241024857386947 ], [ 736452.308191327145323, 5849786.629624757915735 ], [ 736514.294917060527951, 5849778.506001487374306 ], [ 736568.59935596131254, 5849454.178971465677023 ], [ 736720.166779081453569, 5849413.251198274083436 ], [ 736747.10389747528825, 5849391.769328970462084 ], [ 736744.57518420717679, 5849391.408135458827019 ], [ 736817.335720348637551, 5849093.751279097050428 ], [ 736797.491926711983979, 5849080.522150607779622 ], [ 736711.502127901068889, 5849027.605317888781428 ], [ 736618.897739949286915, 5848994.532324265688658 ], [ 736493.220455781556666, 5848954.844776568934321 ], [ 736407.230723702930845, 5848948.230197529308498 ], [ 736420.459912241669372, 5848710.104730119928718 ], [ 736354.313948329305276, 5848703.490081598050892 ], [ 736354.313931645476259, 5848604.271175054833293 ], [ 736188.948988015996292, 5848591.041953319683671 ], [ 736188.948997904080898, 5848948.230222726240754 ], [ 736083.115514486096799, 5848954.844738294370472 ], [ 735944.208909198176116, 5848935.001005491241813 ], [ 735778.844016593298875, 5848849.011234749108553 ], [ 735673.492855301126838, 5848797.931857258081436 ], [ 735606.788771650288254, 5848813.43887750338763 ], [ 735562.771247605327517, 5848776.662789332680404 ], [ 735516.148639327962883, 5848731.719060936942697 ], [ 735487.1861801892519, 5848702.315891712903976 ], [ 735447.848561689024791, 5848673.574987728148699 ], [ 735402.683247094741091, 5848651.456760838627815 ], [ 735371.910613929969259, 5848626.336135475896299 ], [ 735360.078230646089651, 5848604.17326907813549 ], [ 735459.850022227037698, 5848241.527322017587721 ], [ 735519.408106245566159, 5848260.642936361022294 ], [ 735504.666167685529217, 5848486.600806882604957 ], [ 735639.190375703852624, 5848505.097284046001732 ], [ 735755.922054034541361, 5848505.978491818532348 ], [ 735750.617218258557841, 5848633.024610364809632 ], [ 735748.507625443977304, 5848683.54869219660759 ], [ 735942.015960848075338, 5848679.528509959578514 ], [ 736059.218063404667191, 5848010.249026673845947 ], [ 736412.820984798716381, 5848091.089510614052415 ], [ 736415.622907731914893, 5847360.655565643683076 ], [ 736413.269785722368397, 5846523.292429335415363 ], [ 735611.237169202999212, 5846474.403782626613975 ], [ 735027.253844135790132, 5847464.172800971195102 ], [ 735009.948800182202831, 5847493.117225394584239 ] ] ] ] } }
]
}
