{
"type": "FeatureCollection",
"name": "supermercados",
"crs": { "type": "name", "properties": { "name": "urn:ogc:def:crs:EPSG::32718" } },
"features": [
{ "type": "Feature", "properties": { "full_id": "w114715665", "osm_id": "114715665", "osm_type": "way", "building": "yes", "house": null, "cuisine": null, "rooms": null, "phone": null, "operator": null, "guest_hous": null, "craft": null, "wheelchair": null, "payment_de": null, "payment_cr": null, "payment_ap": null, "drive_thro": null, "dispensing": null, "addr_postc": null, "reservatio": null, "internet_a": null, "internet_1": null, "air_condit": null, "man_made": null, "tourism": null, "payment_vi": null, "payment_ma": null, "payment_ca": null, "power": null, "location": null, "generator_": null, "generato_1": null, "generato_2": null, "generato_3": null, "roof_shape": null, "government": null, "designatio": null, "smoking": null, "atm": null, "sport": null, "leisure": null, "religion": null, "denominati": null, "height": null, "disused": null, "highway": null, "official_n": null, "healthcare": null, "alt_name": null, "addr_count": null, "amenity": null, "wikipedia": null, "wikidata": null, "layer": null, "aeroway": null, "opening_ho": "Mo-Su 09:00-21:00", "name_es": "Unimarc", "wikimedia_": null, "start_date": null, "building_l": null, "addr_city": "Los Ángeles", "shop": "supermarket", "brand_wiki": "Q6156244", "brand": "Unimarc", "addr_stree": "Avenida Alemania", "addr_house": "100", "office": null, "name": "Unimarc", "type": null }, "geometry": { "type": "MultiPolygon", "coordinates": [ [ [ [ 734611.696871102438308, 5849711.603090151213109 ], [ 734643.6189194888575, 5849711.025279528461397 ], [ 734644.454302728641778, 5849741.59915897808969 ], [ 734659.334175754105672, 5849745.033486129716039 ], [ 734665.503693208098412, 5849715.505994532257318 ], [ 734660.331316123250872, 5849714.152496661990881 ], [ 734664.440987141686492, 5849693.512465849518776 ], [ 734675.094838525401428, 5849695.566579709760845 ], [ 734675.621266766218469, 5849693.830283371731639 ], [ 734678.207064897869714, 5849694.179407191462815 ], [ 734680.941939022974111, 5849687.571876969188452 ], [ 734685.239354787860066, 5849688.661272827535868 ], [ 734688.779968732735142, 5849672.957294333726168 ], [ 734678.816761861555278, 5849670.594966024160385 ], [ 734677.954745991271921, 5849673.928904663771391 ], [ 734673.70312846347224, 5849672.8937450889498 ], [ 734673.032800878980197, 5849676.433295020833611 ], [ 734669.472575283609331, 5849675.745141668245196 ], [ 734666.434832544066012, 5849675.064467658288777 ], [ 734624.221615323796868, 5849666.036916933022439 ], [ 734619.853885052492842, 5849666.848623907193542 ], [ 734617.37438632408157, 5849663.675525756552815 ], [ 734615.969483835157007, 5849661.882615262642503 ], [ 734614.464784288778901, 5849660.003668612800539 ], [ 734612.290000185137615, 5849657.277331469580531 ], [ 734611.255588511936367, 5849657.950646597892046 ], [ 734609.546485589118674, 5849657.299136811867356 ], [ 734607.221501444932073, 5849657.409098913893104 ], [ 734605.051229309290648, 5849658.925179485231638 ], [ 734604.534486800199375, 5849661.005487931892276 ], [ 734604.6931789717637, 5849662.866846710443497 ], [ 734603.67386719933711, 5849663.761858008801937 ], [ 734605.783833106397651, 5849666.701041085645556 ], [ 734607.018489035428502, 5849668.421009102836251 ], [ 734608.404362937086262, 5849670.481004831381142 ], [ 734610.657955927657895, 5849673.804853307083249 ], [ 734611.469767610076815, 5849703.546432364732027 ], [ 734611.546633836114779, 5849706.587348691187799 ], [ 734611.605130187235773, 5849708.662548421882093 ], [ 734611.696871102438308, 5849711.603090151213109 ] ] ] ] } },
{ "type": "Feature", "properties": { "full_id": "w558940341", "osm_id": "558940341", "osm_type": "way", "building": "yes", "house": null, "cuisine": null, "rooms": null, "phone": null, "operator": null, "guest_hous": null, "craft": null, "wheelchair": null, "payment_de": null, "payment_cr": null, "payment_ap": null, "drive_thro": null, "dispensing": null, "addr_postc": null, "reservatio": null, "internet_a": null, "internet_1": null, "air_condit": null, "man_made": null, "tourism": null, "payment_vi": "yes", "payment_ma": "yes", "payment_ca": "yes", "power": null, "location": null, "generator_": null, "generato_1": null, "generato_2": null, "generato_3": null, "roof_shape": null, "government": null, "designatio": null, "smoking": null, "atm": null, "sport": null, "leisure": null, "religion": null, "denominati": null, "height": null, "disused": null, "highway": null, "official_n": null, "healthcare": null, "alt_name": null, "addr_count": null, "amenity": null, "wikipedia": null, "wikidata": null, "layer": null, "aeroway": null, "opening_ho": null, "name_es": null, "wikimedia_": null, "start_date": null, "building_l": null, "addr_city": null, "shop": "supermarket", "brand_wiki": null, "brand": null, "addr_stree": null, "addr_house": null, "office": null, "name": null, "type": null }, "geometry": { "type": "MultiPolygon", "coordinates": [ [ [ [ 735011.407759370282292, 5847691.458519259467721 ], [ 735049.665143813705072, 5847707.703189538791776 ], [ 735071.52535344241187, 5847656.685338914394379 ], [ 735064.760836055502295, 5847653.755666970275342 ], [ 735087.091960089514032, 5847602.813293668441474 ], [ 735015.424454778200015, 5847572.39736202172935 ], [ 735009.30521804955788, 5847586.664066836237907 ], [ 735017.733867235481739, 5847590.235342061147094 ], [ 735001.993178636417724, 5847626.997455410659313 ], [ 734989.59632352902554, 5847621.739068163558841 ], [ 734984.191397943301126, 5847634.352951388806105 ], [ 735027.921402851468883, 5847652.919773411005735 ], [ 735011.407759370282292, 5847691.458519259467721 ] ] ] ] } },
{ "type": "Feature", "properties": { "full_id": "w1097580963", "osm_id": "1097580963", "osm_type": "way", "building": "yes", "house": null, "cuisine": null, "rooms": null, "phone": null, "operator": null, "guest_hous": null, "craft": null, "wheelchair": null, "payment_de": null, "payment_cr": null, "payment_ap": null, "drive_thro": null, "dispensing": null, "addr_postc": null, "reservatio": null, "internet_a": null, "internet_1": null, "air_condit": null, "man_made": null, "tourism": null, "payment_vi": null, "payment_ma": null, "payment_ca": null, "power": null, "location": null, "generator_": null, "generato_1": null, "generato_2": null, "generato_3": null, "roof_shape": null, "government": null, "designatio": null, "smoking": null, "atm": null, "sport": null, "leisure": null, "religion": null, "denominati": null, "height": null, "disused": null, "highway": null, "official_n": null, "healthcare": null, "alt_name": null, "addr_count": null, "amenity": null, "wikipedia": null, "wikidata": null, "layer": null, "aeroway": null, "opening_ho": null, "name_es": null, "wikimedia_": null, "start_date": null, "building_l": null, "addr_city": null, "shop": "supermarket", "brand_wiki": null, "brand": null, "addr_stree": null, "addr_house": null, "office": null, "name": "Supermercado Acuenta", "type": null }, "geometry": { "type": "MultiPolygon", "coordinates": [ [ [ [ 732747.953859109897166, 5850111.357298349961638 ], [ 732756.320969813270494, 5850112.367208180949092 ], [ 732755.571713847806677, 5850118.496429755352437 ], [ 732859.506023862981237, 5850131.126828073523939 ], [ 732860.838506057159975, 5850120.216820450499654 ], [ 732833.737880063708872, 5850116.921225979924202 ], [ 732839.46514720225241, 5850070.393659008666873 ], [ 732761.068090201006271, 5850060.847245229408145 ], [ 732757.786335159442388, 5850087.526652287691832 ], [ 732763.773246366181411, 5850088.258824096992612 ], [ 732762.453683994128369, 5850099.001857159659266 ], [ 732759.176086386549287, 5850098.604845501482487 ], [ 732758.858880691230297, 5850101.190295226871967 ], [ 732749.345762139651924, 5850100.03473739977926 ], [ 732747.953859109897166, 5850111.357298349961638 ] ] ] ] } },
{ "type": "Feature", "properties": { "full_id": "w90087363", "osm_id": "90087363", "osm_type": "way", "building": "retail", "house": null, "cuisine": null, "rooms": null, "phone": null, "operator": null, "guest_hous": null, "craft": null, "wheelchair": null, "payment_de": null, "payment_cr": null, "payment_ap": null, "drive_thro": null, "dispensing": null, "addr_postc": null, "reservatio": null, "internet_a": null, "internet_1": null, "air_condit": null, "man_made": null, "tourism": null, "payment_vi": null, "payment_ma": null, "payment_ca": null, "power": null, "location": null, "generator_": null, "generato_1": null, "generato_2": null, "generato_3": null, "roof_shape": null, "government": null, "designatio": null, "smoking": null, "atm": null, "sport": null, "leisure": null, "religion": null, "denominati": null, "height": null, "disused": null, "highway": null, "official_n": null, "healthcare": null, "alt_name": null, "addr_count": null, "amenity": null, "wikipedia": null, "wikidata": null, "layer": null, "aeroway": null, "opening_ho": null, "name_es": null, "wikimedia_": null, "start_date": null, "building_l": null, "addr_city": null, "shop": "supermarket", "brand_wiki": "Q6310864", "brand": "Jumbo", "addr_stree": "Avenida Ercilla", "addr_house": "190", "office": null, "name": "Jumbo", "type": null }, "geometry": { "type": "MultiPolygon", "coordinates": [ [ [ [ 733841.759400611044839, 5849572.510342591442168 ], [ 733840.448649071971886, 5849558.309192491695285 ], [ 733842.055295016732998, 5849558.152989575639367 ], [ 733841.531141432235017, 5849552.414773805066943 ], [ 733841.049736502114683, 5849547.252872403711081 ], [ 733840.20219036610797, 5849547.332216432318091 ], [ 733835.885167727596126, 5849547.742269163951278 ], [ 733831.517153301392682, 5849502.230164242908359 ], [ 733834.765802594600245, 5849501.916766452603042 ], [ 733832.972185247344896, 5849483.131270004436374 ], [ 733833.810880032833666, 5849483.052174910902977 ], [ 733832.83455730532296, 5849472.562159882858396 ], [ 733822.204790543066338, 5849473.549393457360566 ], [ 733822.371529060066678, 5849475.388315998949111 ], [ 733738.813945425674319, 5849483.055305623449385 ], [ 733745.91393461311236, 5849559.987472804263234 ], [ 733738.294538952875882, 5849560.690132136456668 ], [ 733739.809278142056428, 5849577.1178735550493 ], [ 733736.127511448808946, 5849577.454501762986183 ], [ 733736.685606312239543, 5849583.458310653455555 ], [ 733834.873972361907363, 5849574.447452929802239 ], [ 733834.749043847550638, 5849573.15155316144228 ], [ 733841.759400611044839, 5849572.510342591442168 ] ] ] ] } },
{ "type": "Feature", "properties": { "full_id": "w174380587", "osm_id": "174380587", "osm_type": "way", "building": "yes", "house": null, "cuisine": null, "rooms": null, "phone": null, "operator": null, "guest_hous": null, "craft": null, "wheelchair": null, "payment_de": null, "payment_cr": null, "payment_ap": null, "drive_thro": null, "dispensing": null, "addr_postc": null, "reservatio": null, "internet_a": null, "internet_1": null, "air_condit": null, "man_made": null, "tourism": null, "payment_vi": null, "payment_ma": null, "payment_ca": null, "power": null, "location": null, "generator_": null, "generato_1": null, "generato_2": null, "generato_3": null, "roof_shape": null, "government": null, "designatio": null, "smoking": null, "atm": null, "sport": null, "leisure": null, "religion": null, "denominati": null, "height": null, "disused": null, "highway": null, "official_n": null, "healthcare": null, "alt_name": null, "addr_count": null, "amenity": null, "wikipedia": null, "wikidata": null, "layer": null, "aeroway": null, "opening_ho": null, "name_es": null, "wikimedia_": null, "start_date": null, "building_l": null, "addr_city": "Los Ángeles", "shop": "supermarket", "brand_wiki": "Q6156244", "brand": "Unimarc", "addr_stree": null, "addr_house": null, "office": null, "name": "Unimarc", "type": null }, "geometry": { "type": "MultiPolygon", "coordinates": [ [ [ [ 734229.273556263186038, 5850133.577479861676693 ], [ 734241.200085421442054, 5850133.341831432655454 ], [ 734241.260042715119198, 5850135.472514778375626 ], [ 734244.577101899078116, 5850135.379172302782536 ], [ 734244.683277714764699, 5850139.15225741174072 ], [ 734270.063291098922491, 5850138.204789206385612 ], [ 734270.355213176459074, 5850140.084610432386398 ], [ 734299.348880884470418, 5850139.201943449676037 ], [ 734298.646109058638103, 5850116.121031041257083 ], [ 734241.541297588846646, 5850117.783694254234433 ], [ 734241.410794114577584, 5850116.921091074123979 ], [ 734230.064864835119806, 5850117.340313987806439 ], [ 734230.0124346553348, 5850120.196055912412703 ], [ 734228.720683145918883, 5850120.221297946758568 ], [ 734229.273556263186038, 5850133.577479861676693 ] ] ] ] } },
{ "type": "Feature", "properties": { "full_id": "w293478970", "osm_id": "293478970", "osm_type": "way", "building": "yes", "house": null, "cuisine": null, "rooms": null, "phone": null, "operator": null, "guest_hous": null, "craft": null, "wheelchair": null, "payment_de": null, "payment_cr": null, "payment_ap": null, "drive_thro": null, "dispensing": null, "addr_postc": null, "reservatio": null, "internet_a": null, "internet_1": null, "air_condit": null, "man_made": null, "tourism": null, "payment_vi": null, "payment_ma": null, "payment_ca": null, "power": null, "location": null, "generator_": null, "generato_1": null, "generato_2": null, "generato_3": null, "roof_shape": null, "government": null, "designatio": null, "smoking": null, "atm": null, "sport": null, "leisure": null, "religion": null, "denominati": null, "height": null, "disused": null, "highway": null, "official_n": null, "healthcare": null, "alt_name": null, "addr_count": null, "amenity": null, "wikipedia": null, "wikidata": null, "layer": null, "aeroway": null, "opening_ho": null, "name_es": null, "wikimedia_": null, "start_date": null, "building_l": null, "addr_city": null, "shop": "supermarket", "brand_wiki": null, "brand": null, "addr_stree": null, "addr_house": null, "office": null, "name": "Market", "type": null }, "geometry": { "type": "MultiPolygon", "coordinates": [ [ [ [ 744018.144141822122037, 5843432.100520113483071 ], [ 744039.980676036677323, 5843448.47528799623251 ], [ 744056.122305338038132, 5843432.406464735046029 ], [ 744034.285774705931544, 5843416.031739385798573 ], [ 744018.144141822122037, 5843432.100520113483071 ] ] ] ] } },
{ "type": "Feature", "properties": { "full_id": "w315927431", "osm_id": "315927431", "osm_type": "way", "building": "yes", "house": null, "cuisine": null, "rooms": null, "phone": null, "operator": null, "guest_hous": null, "craft": null, "wheelchair": null, "payment_de": null, "payment_cr": null, "payment_ap": null, "drive_thro": null, "dispensing": null, "addr_postc": null, "reservatio": null, "internet_a": null, "internet_1": null, "air_condit": null, "man_made": null, "tourism": null, "payment_vi": null, "payment_ma": null, "payment_ca": null, "power": null, "location": null, "generator_": null, "generato_1": null, "generato_2": null, "generato_3": null, "roof_shape": null, "government": null, "designatio": null, "smoking": null, "atm": null, "sport": null, "leisure": null, "religion": null, "denominati": null, "height": null, "disused": null, "highway": null, "official_n": null, "healthcare": null, "alt_name": null, "addr_count": null, "amenity": null, "wikipedia": null, "wikidata": null, "layer": null, "aeroway": null, "opening_ho": null, "name_es": null, "wikimedia_": null, "start_date": null, "building_l": null, "addr_city": null, "shop": "supermarket", "brand_wiki": null, "brand": null, "addr_stree": null, "addr_house": null, "office": null, "name": "Tamarugal", "type": null }, "geometry": { "type": "MultiPolygon", "coordinates": [ [ [ [ 734534.130112776882015, 5850214.109232535585761 ], [ 734543.825060680159368, 5850213.214134888723493 ], [ 734544.096558420802467, 5850200.856473442167044 ], [ 734561.15829662187025, 5850197.499242817983031 ], [ 734565.606419715448283, 5850193.875473122112453 ], [ 734594.737607904477045, 5850193.465480865910649 ], [ 734593.850190469063818, 5850169.201380693353713 ], [ 734535.826669179601595, 5850164.039444707334042 ], [ 734533.259252153104171, 5850168.432064155116677 ], [ 734534.130112776882015, 5850214.109232535585761 ] ] ] ] } },
{ "type": "Feature", "properties": { "full_id": "123", "osm_id": null, "osm_type": null, "building": null, "house": null, "cuisine": null, "rooms": null, "phone": null, "operator": null, "guest_hous": null, "craft": null, "wheelchair": null, "payment_de": null, "payment_cr": null, "payment_ap": null, "drive_thro": null, "dispensing": null, "addr_postc": null, "reservatio": null, "internet_a": null, "internet_1": null, "air_condit": null, "man_made": null, "tourism": null, "payment_vi": null, "payment_ma": null, "payment_ca": null, "power": null, "location": null, "generator_": null, "generato_1": null, "generato_2": null, "generato_3": null, "roof_shape": null, "government": null, "designatio": null, "smoking": null, "atm": null, "sport": null, "leisure": null, "religion": null, "denominati": null, "height": null, "disused": null, "highway": null, "official_n": null, "healthcare": null, "alt_name": null, "addr_count": null, "amenity": null, "wikipedia": null, "wikidata": null, "layer": null, "aeroway": null, "opening_ho": null, "name_es": null, "wikimedia_": null, "start_date": null, "building_l": null, "addr_city": null, "shop": null, "brand_wiki": null, "brand": null, "addr_stree": null, "addr_house": null, "office": null, "name": "Mayorista 10", "type": null }, "geometry": { "type": "MultiPolygon", "coordinates": [ [ [ [ 735446.294913731282577, 5851757.026401948183775 ], [ 735454.613175194477662, 5851759.295004274696112 ], [ 735489.398577789077535, 5851735.09637987613678 ], [ 735458.772206333000213, 5851698.798577077686787 ], [ 735424.743030377198011, 5851736.230792233720422 ], [ 735446.294913731282577, 5851757.026401948183775 ] ] ] ] } },
{ "type": "Feature", "properties": { "full_id": "233", "osm_id": null, "osm_type": null, "building": null, "house": null, "cuisine": null, "rooms": null, "phone": null, "operator": null, "guest_hous": null, "craft": null, "wheelchair": null, "payment_de": null, "payment_cr": null, "payment_ap": null, "drive_thro": null, "dispensing": null, "addr_postc": null, "reservatio": null, "internet_a": null, "internet_1": null, "air_condit": null, "man_made": null, "tourism": null, "payment_vi": null, "payment_ma": null, "payment_ca": null, "power": null, "location": null, "generator_": null, "generato_1": null, "generato_2": null, "generato_3": null, "roof_shape": null, "government": null, "designatio": null, "smoking": null, "atm": null, "sport": null, "leisure": null, "religion": null, "denominati": null, "height": null, "disused": null, "highway": null, "official_n": null, "healthcare": null, "alt_name": null, "addr_count": null, "amenity": null, "wikipedia": null, "wikidata": null, "layer": null, "aeroway": null, "opening_ho": null, "name_es": null, "wikimedia_": null, "start_date": null, "building_l": null, "addr_city": null, "shop": null, "brand_wiki": null, "brand": null, "addr_stree": null, "addr_house": null, "office": null, "name": "Lider Sorvicenta", "type": null }, "geometry": { "type": "MultiPolygon", "coordinates": [ [ [ [ 735968.873984029982239, 5852269.977807082235813 ], [ 736021.431644425028935, 5852322.774195440113544 ], [ 736076.617009491310455, 5852267.827550388872623 ], [ 736071.600143874064088, 5852264.005189388990402 ], [ 736083.306131093995646, 5852252.776961226947606 ], [ 736070.644514930085279, 5852241.309874365106225 ], [ 736079.005937680485658, 5852235.337409129366279 ], [ 736057.266177540645003, 5852213.119923824444413 ], [ 736068.255470940144733, 5852202.13059489056468 ], [ 736063.955298757413402, 5852197.83043659478426 ], [ 736073.750104129780084, 5852188.274498003534973 ], [ 736063.955267491401173, 5852178.479692995548248 ], [ 735968.873984029982239, 5852269.977807082235813 ] ] ] ] } },
{ "type": "Feature", "properties": { "full_id": "243", "osm_id": null, "osm_type": null, "building": null, "house": null, "cuisine": null, "rooms": null, "phone": null, "operator": null, "guest_hous": null, "craft": null, "wheelchair": null, "payment_de": null, "payment_cr": null, "payment_ap": null, "drive_thro": null, "dispensing": null, "addr_postc": null, "reservatio": null, "internet_a": null, "internet_1": null, "air_condit": null, "man_made": null, "tourism": null, "payment_vi": null, "payment_ma": null, "payment_ca": null, "power": null, "location": null, "generator_": null, "generato_1": null, "generato_2": null, "generato_3": null, "roof_shape": null, "government": null, "designatio": null, "smoking": null, "atm": null, "sport": null, "leisure": null, "religion": null, "denominati": null, "height": null, "disused": null, "highway": null, "official_n": null, "healthcare": null, "alt_name": null, "addr_count": null, "amenity": null, "wikipedia": null, "wikidata": null, "layer": null, "aeroway": null, "opening_ho": null, "name_es": null, "wikimedia_": null, "start_date": null, "building_l": null, "addr_city": null, "shop": null, "brand_wiki": null, "brand": null, "addr_stree": null, "addr_house": null, "office": null, "name": "Unimarc Marconi", "type": null }, "geometry": { "type": "MultiPolygon", "coordinates": [ [ [ [ 735163.865116919158027, 5850899.176164975389838 ], [ 735220.0428716520546, 5850917.152946444228292 ], [ 735227.158667873824015, 5850886.816963011398911 ], [ 735242.888435906264931, 5850889.813082963228226 ], [ 735251.127800563699566, 5850868.091015674173832 ], [ 735217.421130653005093, 5850846.743534342385828 ], [ 735183.714474665233865, 5850834.009970972314477 ], [ 735163.865116919158027, 5850899.176164975389838 ] ] ] ] } },
{ "type": "Feature", "properties": { "full_id": "243", "osm_id": null, "osm_type": null, "building": null, "house": null, "cuisine": null, "rooms": null, "phone": null, "operator": null, "guest_hous": null, "craft": null, "wheelchair": null, "payment_de": null, "payment_cr": null, "payment_ap": null, "drive_thro": null, "dispensing": null, "addr_postc": null, "reservatio": null, "internet_a": null, "internet_1": null, "air_condit": null, "man_made": null, "tourism": null, "payment_vi": null, "payment_ma": null, "payment_ca": null, "power": null, "location": null, "generator_": null, "generato_1": null, "generato_2": null, "generato_3": null, "roof_shape": null, "government": null, "designatio": null, "smoking": null, "atm": null, "sport": null, "leisure": null, "religion": null, "denominati": null, "height": null, "disused": null, "highway": null, "official_n": null, "healthcare": null, "alt_name": null, "addr_count": null, "amenity": null, "wikipedia": null, "wikidata": null, "layer": null, "aeroway": null, "opening_ho": null, "name_es": null, "wikimedia_": null, "start_date": null, "building_l": null, "addr_city": null, "shop": null, "brand_wiki": null, "brand": null, "addr_stree": null, "addr_house": null, "office": null, "name": "Santa Isabel", "type": null }, "geometry": { "type": "MultiPolygon", "coordinates": [ [ [ [ 735414.14935582887847, 5849957.164826319552958 ], [ 735438.805227018077858, 5849964.509084998629987 ], [ 735439.32979687245097, 5849950.345079832710326 ], [ 735456.64136445405893, 5849954.541793869808316 ], [ 735475.526553403120488, 5849861.68884613737464 ], [ 735435.132898819632828, 5849853.82002014387399 ], [ 735414.14935582887847, 5849957.164826319552958 ] ] ] ] } },
{ "type": "Feature", "properties": { "full_id": "5332", "osm_id": null, "osm_type": null, "building": null, "house": null, "cuisine": null, "rooms": null, "phone": null, "operator": null, "guest_hous": null, "craft": null, "wheelchair": null, "payment_de": null, "payment_cr": null, "payment_ap": null, "drive_thro": null, "dispensing": null, "addr_postc": null, "reservatio": null, "internet_a": null, "internet_1": null, "air_condit": null, "man_made": null, "tourism": null, "payment_vi": null, "payment_ma": null, "payment_ca": null, "power": null, "location": null, "generator_": null, "generato_1": null, "generato_2": null, "generato_3": null, "roof_shape": null, "government": null, "designatio": null, "smoking": null, "atm": null, "sport": null, "leisure": null, "religion": null, "denominati": null, "height": null, "disused": null, "highway": null, "official_n": null, "healthcare": null, "alt_name": null, "addr_count": null, "amenity": null, "wikipedia": null, "wikidata": null, "layer": null, "aeroway": null, "opening_ho": null, "name_es": null, "wikimedia_": null, "start_date": null, "building_l": null, "addr_city": null, "shop": null, "brand_wiki": null, "brand": null, "addr_stree": null, "addr_house": null, "office": null, "name": "Tottus", "type": null }, "geometry": { "type": "MultiPolygon", "coordinates": [ [ [ [ 735546.346477319952101, 5849801.360565112903714 ], [ 735625.03542396100238, 5849822.344148016534746 ], [ 735620.314127360237762, 5849845.950829515233636 ], [ 735631.330578533234075, 5849848.049182716757059 ], [ 735652.838752439827658, 5849768.311049554497004 ], [ 735570.477659079944715, 5849748.901250844821334 ], [ 735562.084240357857198, 5849789.294906361028552 ], [ 735551.067790881614201, 5849788.245738662779331 ], [ 735546.346477319952101, 5849801.360565112903714 ] ] ] ] } },
{ "type": "Feature", "properties": { "full_id": "253", "osm_id": null, "osm_type": null, "building": null, "house": null, "cuisine": null, "rooms": null, "phone": null, "operator": null, "guest_hous": null, "craft": null, "wheelchair": null, "payment_de": null, "payment_cr": null, "payment_ap": null, "drive_thro": null, "dispensing": null, "addr_postc": null, "reservatio": null, "internet_a": null, "internet_1": null, "air_condit": null, "man_made": null, "tourism": null, "payment_vi": null, "payment_ma": null, "payment_ca": null, "power": null, "location": null, "generator_": null, "generato_1": null, "generato_2": null, "generato_3": null, "roof_shape": null, "government": null, "designatio": null, "smoking": null, "atm": null, "sport": null, "leisure": null, "religion": null, "denominati": null, "height": null, "disused": null, "highway": null, "official_n": null, "healthcare": null, "alt_name": null, "addr_count": null, "amenity": null, "wikipedia": null, "wikidata": null, "layer": null, "aeroway": null, "opening_ho": null, "name_es": null, "wikimedia_": null, "start_date": null, "building_l": null, "addr_city": null, "shop": null, "brand_wiki": null, "brand": null, "addr_stree": null, "addr_house": null, "office": null, "name": "Tottus", "type": null }, "geometry": { "type": "MultiPolygon", "coordinates": [ [ [ [ 734053.4587650076719, 5850100.718904865905643 ], [ 734094.648451826069504, 5850098.870582967996597 ], [ 734093.06411090795882, 5850023.35615405254066 ], [ 734052.666533509851433, 5850025.204474672675133 ], [ 734047.913794609950855, 5849974.245442934334278 ], [ 734038.144444677862339, 5849973.981422251090407 ], [ 734041.841146105434746, 5850092.00572001375258 ], [ 734053.4587650076719, 5850100.718904865905643 ] ] ] ] } },
{ "type": "Feature", "properties": { "full_id": "2343", "osm_id": null, "osm_type": null, "building": null, "house": null, "cuisine": null, "rooms": null, "phone": null, "operator": null, "guest_hous": null, "craft": null, "wheelchair": null, "payment_de": null, "payment_cr": null, "payment_ap": null, "drive_thro": null, "dispensing": null, "addr_postc": null, "reservatio": null, "internet_a": null, "internet_1": null, "air_condit": null, "man_made": null, "tourism": null, "payment_vi": null, "payment_ma": null, "payment_ca": null, "power": null, "location": null, "generator_": null, "generato_1": null, "generato_2": null, "generato_3": null, "roof_shape": null, "government": null, "designatio": null, "smoking": null, "atm": null, "sport": null, "leisure": null, "religion": null, "denominati": null, "height": null, "disused": null, "highway": null, "official_n": null, "healthcare": null, "alt_name": null, "addr_count": null, "amenity": null, "wikipedia": null, "wikidata": null, "layer": null, "aeroway": null, "opening_ho": null, "name_es": null, "wikimedia_": null, "start_date": null, "building_l": null, "addr_city": null, "shop": null, "brand_wiki": null, "brand": null, "addr_stree": null, "addr_house": null, "office": null, "name": "Santa Isabel", "type": null }, "geometry": { "type": "MultiPolygon", "coordinates": [ [ [ [ 734437.095946373417974, 5850043.737268606200814 ], [ 734512.704344019526616, 5850037.22642233595252 ], [ 734512.49427143286448, 5850006.773035982623696 ], [ 734501.15301292296499, 5850008.453241165727377 ], [ 734500.942969535128213, 5849996.061863472685218 ], [ 734450.747397967148572, 5850002.572668667882681 ], [ 734449.277229722240008, 5849999.632344050332904 ], [ 734437.935969515820034, 5850000.262432454153895 ], [ 734441.926468962221406, 5850034.706256469711661 ], [ 734436.46586306381505, 5850035.546358721330762 ], [ 734437.095946373417974, 5850043.737268606200814 ] ] ] ] } },
{ "type": "Feature", "properties": { "full_id": "223", "osm_id": null, "osm_type": null, "building": null, "house": null, "cuisine": null, "rooms": null, "phone": null, "operator": null, "guest_hous": null, "craft": null, "wheelchair": null, "payment_de": null, "payment_cr": null, "payment_ap": null, "drive_thro": null, "dispensing": null, "addr_postc": null, "reservatio": null, "internet_a": null, "internet_1": null, "air_condit": null, "man_made": null, "tourism": null, "payment_vi": null, "payment_ma": null, "payment_ca": null, "power": null, "location": null, "generator_": null, "generato_1": null, "generato_2": null, "generato_3": null, "roof_shape": null, "government": null, "designatio": null, "smoking": null, "atm": null, "sport": null, "leisure": null, "religion": null, "denominati": null, "height": null, "disused": null, "highway": null, "official_n": null, "healthcare": null, "alt_name": null, "addr_count": null, "amenity": null, "wikipedia": null, "wikidata": null, "layer": null, "aeroway": null, "opening_ho": null, "name_es": null, "wikimedia_": null, "start_date": null, "building_l": null, "addr_city": null, "shop": null, "brand_wiki": null, "brand": null, "addr_stree": null, "addr_house": null, "office": null, "name": "Lider Vega", "type": null }, "geometry": { "type": "MultiPolygon", "coordinates": [ [ [ [ 734527.860327074071392, 5850010.730235554277897 ], [ 734552.006876000086777, 5850032.193764770403504 ], [ 734594.263270477415062, 5850028.840013924986124 ], [ 734543.287217925186269, 5849980.547067766077816 ], [ 734527.692620990215801, 5849997.147821544669569 ], [ 734527.860327074071392, 5850010.730235554277897 ] ] ] ] } },
{ "type": "Feature", "properties": { "full_id": "412", "osm_id": null, "osm_type": null, "building": null, "house": null, "cuisine": null, "rooms": null, "phone": null, "operator": null, "guest_hous": null, "craft": null, "wheelchair": null, "payment_de": null, "payment_cr": null, "payment_ap": null, "drive_thro": null, "dispensing": null, "addr_postc": null, "reservatio": null, "internet_a": null, "internet_1": null, "air_condit": null, "man_made": null, "tourism": null, "payment_vi": null, "payment_ma": null, "payment_ca": null, "power": null, "location": null, "generator_": null, "generato_1": null, "generato_2": null, "generato_3": null, "roof_shape": null, "government": null, "designatio": null, "smoking": null, "atm": null, "sport": null, "leisure": null, "religion": null, "denominati": null, "height": null, "disused": null, "highway": null, "official_n": null, "healthcare": null, "alt_name": null, "addr_count": null, "amenity": null, "wikipedia": null, "wikidata": null, "layer": null, "aeroway": null, "opening_ho": null, "name_es": null, "wikimedia_": null, "start_date": null, "building_l": null, "addr_city": null, "shop": null, "brand_wiki": null, "brand": null, "addr_stree": null, "addr_house": null, "office": null, "name": "Alvi", "type": null }, "geometry": { "type": "MultiPolygon", "coordinates": [ [ [ [ 734516.634295854717493, 5849838.280063500627875 ], [ 734593.74179164681118, 5849833.944577239453793 ], [ 734594.670737628825009, 5849796.784333344548941 ], [ 734515.085900859092362, 5849806.384191282093525 ], [ 734516.634295854717493, 5849838.280063500627875 ] ] ] ] } },
{ "type": "Feature", "properties": { "full_id": "132", "osm_id": null, "osm_type": null, "building": null, "house": null, "cuisine": null, "rooms": null, "phone": null, "operator": null, "guest_hous": null, "craft": null, "wheelchair": null, "payment_de": null, "payment_cr": null, "payment_ap": null, "drive_thro": null, "dispensing": null, "addr_postc": null, "reservatio": null, "internet_a": null, "internet_1": null, "air_condit": null, "man_made": null, "tourism": null, "payment_vi": null, "payment_ma": null, "payment_ca": null, "power": null, "location": null, "generator_": null, "generato_1": null, "generato_2": null, "generato_3": null, "roof_shape": null, "government": null, "designatio": null, "smoking": null, "atm": null, "sport": null, "leisure": null, "religion": null, "denominati": null, "height": null, "disused": null, "highway": null, "official_n": null, "healthcare": null, "alt_name": null, "addr_count": null, "amenity": null, "wikipedia": null, "wikidata": null, "layer": null, "aeroway": null, "opening_ho": null, "name_es": null, "wikimedia_": null, "start_date": null, "building_l": null, "addr_city": null, "shop": null, "brand_wiki": null, "brand": null, "addr_stree": null, "addr_house": null, "office": null, "name": "Lider", "type": null }, "geometry": { "type": "MultiPolygon", "coordinates": [ [ [ [ 734389.826069698669016, 5849315.879838712513447 ], [ 734412.69466186594218, 5849313.947244385257363 ], [ 734412.050470353337005, 5849310.404223615303636 ], [ 734461.974862276343629, 5849306.539028196595609 ], [ 734472.281833761255257, 5849305.894825745373964 ], [ 734461.974723227904178, 5849220.540225994773209 ], [ 734440.072406089282595, 5849220.218168511986732 ], [ 734439.106100334087387, 5849203.469339683651924 ], [ 734394.013103344943374, 5849208.300805971026421 ], [ 734394.013129905099049, 5849224.727543469518423 ], [ 734384.672432928928174, 5849222.795001219026744 ], [ 734386.927155558019876, 5849267.565909578464925 ], [ 734389.826069698669016, 5849315.879838712513447 ] ] ] ] } },
{ "type": "Feature", "properties": { "full_id": "5323", "osm_id": null, "osm_type": null, "building": null, "house": null, "cuisine": null, "rooms": null, "phone": null, "operator": null, "guest_hous": null, "craft": null, "wheelchair": null, "payment_de": null, "payment_cr": null, "payment_ap": null, "drive_thro": null, "dispensing": null, "addr_postc": null, "reservatio": null, "internet_a": null, "internet_1": null, "air_condit": null, "man_made": null, "tourism": null, "payment_vi": null, "payment_ma": null, "payment_ca": null, "power": null, "location": null, "generator_": null, "generato_1": null, "generato_2": null, "generato_3": null, "roof_shape": null, "government": null, "designatio": null, "smoking": null, "atm": null, "sport": null, "leisure": null, "religion": null, "denominati": null, "height": null, "disused": null, "highway": null, "official_n": null, "healthcare": null, "alt_name": null, "addr_count": null, "amenity": null, "wikipedia": null, "wikidata": null, "layer": null, "aeroway": null, "opening_ho": null, "name_es": null, "wikimedia_": null, "start_date": null, "building_l": null, "addr_city": null, "shop": null, "brand_wiki": null, "brand": null, "addr_stree": null, "addr_house": null, "office": null, "name": "Lider", "type": null }, "geometry": { "type": "MultiPolygon", "coordinates": [ [ [ [ 733080.675668836571276, 5848708.818349219858646 ], [ 733142.063673937576823, 5848705.00137878023088 ], [ 733139.200939803849906, 5848655.063985528424382 ], [ 733133.157560455729254, 5848655.063995300792158 ], [ 733131.885259779635817, 5848648.702545398846269 ], [ 733078.767145809251815, 5848654.746010655537248 ], [ 733080.675668836571276, 5848708.818349219858646 ] ] ] ] } },
{ "type": "Feature", "properties": { "full_id": "423", "osm_id": null, "osm_type": null, "building": null, "house": null, "cuisine": null, "rooms": null, "phone": null, "operator": null, "guest_hous": null, "craft": null, "wheelchair": null, "payment_de": null, "payment_cr": null, "payment_ap": null, "drive_thro": null, "dispensing": null, "addr_postc": null, "reservatio": null, "internet_a": null, "internet_1": null, "air_condit": null, "man_made": null, "tourism": null, "payment_vi": null, "payment_ma": null, "payment_ca": null, "power": null, "location": null, "generator_": null, "generato_1": null, "generato_2": null, "generato_3": null, "roof_shape": null, "government": null, "designatio": null, "smoking": null, "atm": null, "sport": null, "leisure": null, "religion": null, "denominati": null, "height": null, "disused": null, "highway": null, "official_n": null, "healthcare": null, "alt_name": null, "addr_count": null, "amenity": null, "wikipedia": null, "wikidata": null, "layer": null, "aeroway": null, "opening_ho": null, "name_es": null, "wikimedia_": null, "start_date": null, "building_l": null, "addr_city": null, "shop": null, "brand_wiki": null, "brand": null, "addr_stree": null, "addr_house": null, "office": null, "name": "Santa Isabel", "type": null }, "geometry": { "type": "MultiPolygon", "coordinates": [ [ [ [ 733513.253916086978279, 5848408.875189814716578 ], [ 733561.600937506416813, 5848400.605224084109068 ], [ 733557.465888287755661, 5848335.400348179042339 ], [ 733507.528498738538474, 5848340.489590503275394 ], [ 733513.253916086978279, 5848408.875189814716578 ] ] ] ] } },
{ "type": "Feature", "properties": { "full_id": "5645", "osm_id": null, "osm_type": null, "building": null, "house": null, "cuisine": null, "rooms": null, "phone": null, "operator": null, "guest_hous": null, "craft": null, "wheelchair": null, "payment_de": null, "payment_cr": null, "payment_ap": null, "drive_thro": null, "dispensing": null, "addr_postc": null, "reservatio": null, "internet_a": null, "internet_1": null, "air_condit": null, "man_made": null, "tourism": null, "payment_vi": null, "payment_ma": null, "payment_ca": null, "power": null, "location": null, "generator_": null, "generato_1": null, "generato_2": null, "generato_3": null, "roof_shape": null, "government": null, "designatio": null, "smoking": null, "atm": null, "sport": null, "leisure": null, "religion": null, "denominati": null, "height": null, "disused": null, "highway": null, "official_n": null, "healthcare": null, "alt_name": null, "addr_count": null, "amenity": null, "wikipedia": null, "wikidata": null, "layer": null, "aeroway": null, "opening_ho": null, "name_es": null, "wikimedia_": null, "start_date": null, "building_l": null, "addr_city": null, "shop": null, "brand_wiki": null, "brand": null, "addr_stree": null, "addr_house": null, "office": null, "name": "Tottus", "type": null }, "geometry": { "type": "MultiPolygon", "coordinates": [ [ [ [ 734493.379696378367953, 5848842.745259391143918 ], [ 734534.249227318679914, 5848837.918082421645522 ], [ 734535.214620872866362, 5848820.218674279749393 ], [ 734490.483398110722192, 5848823.115013138391078 ], [ 734493.379696378367953, 5848842.745259391143918 ] ] ] ] } },
{ "type": "Feature", "properties": { "full_id": "565", "osm_id": null, "osm_type": null, "building": null, "house": null, "cuisine": null, "rooms": null, "phone": null, "operator": null, "guest_hous": null, "craft": null, "wheelchair": null, "payment_de": null, "payment_cr": null, "payment_ap": null, "drive_thro": null, "dispensing": null, "addr_postc": null, "reservatio": null, "internet_a": null, "internet_1": null, "air_condit": null, "man_made": null, "tourism": null, "payment_vi": null, "payment_ma": null, "payment_ca": null, "power": null, "location": null, "generator_": null, "generato_1": null, "generato_2": null, "generato_3": null, "roof_shape": null, "government": null, "designatio": null, "smoking": null, "atm": null, "sport": null, "leisure": null, "religion": null, "denominati": null, "height": null, "disused": null, "highway": null, "official_n": null, "healthcare": null, "alt_name": null, "addr_count": null, "amenity": null, "wikipedia": null, "wikidata": null, "layer": null, "aeroway": null, "opening_ho": null, "name_es": null, "wikimedia_": null, "start_date": null, "building_l": null, "addr_city": null, "shop": null, "brand_wiki": null, "brand": null, "addr_stree": null, "addr_house": null, "office": null, "name": "Trebol", "type": null }, "geometry": { "type": "MultiPolygon", "coordinates": [ [ [ [ 735684.215641705086455, 5851222.36444129422307 ], [ 735747.497294934932142, 5851247.224972784519196 ], [ 735764.070979510317557, 5851203.153822531923652 ], [ 735750.887299167108722, 5851196.373670996166766 ], [ 735711.336269703693688, 5851183.190065494738519 ], [ 735695.892591407871805, 5851213.32419197075069 ], [ 735688.359063000883907, 5851211.44082280062139 ], [ 735684.215641705086455, 5851222.36444129422307 ] ] ] ] } },
{ "type": "Feature", "properties": { "full_id": "7546", "osm_id": null, "osm_type": null, "building": null, "house": null, "cuisine": null, "rooms": null, "phone": null, "operator": null, "guest_hous": null, "craft": null, "wheelchair": null, "payment_de": null, "payment_cr": null, "payment_ap": null, "drive_thro": null, "dispensing": null, "addr_postc": null, "reservatio": null, "internet_a": null, "internet_1": null, "air_condit": null, "man_made": null, "tourism": null, "payment_vi": null, "payment_ma": null, "payment_ca": null, "power": null, "location": null, "generator_": null, "generato_1": null, "generato_2": null, "generato_3": null, "roof_shape": null, "government": null, "designatio": null, "smoking": null, "atm": null, "sport": null, "leisure": null, "religion": null, "denominati": null, "height": null, "disused": null, "highway": null, "official_n": null, "healthcare": null, "alt_name": null, "addr_count": null, "amenity": null, "wikipedia": null, "wikidata": null, "layer": null, "aeroway": null, "opening_ho": null, "name_es": null, "wikimedia_": null, "start_date": null, "building_l": null, "addr_city": null, "shop": null, "brand_wiki": null, "brand": null, "addr_stree": null, "addr_house": null, "office": null, "name": "Cugat", "type": null }, "geometry": { "type": "MultiPolygon", "coordinates": [ [ [ [ 734055.014891748083755, 5850512.781102733686566 ], [ 734128.497830603970215, 5850500.465404249727726 ], [ 734123.160973896738142, 5850435.192840425297618 ], [ 734055.83580762706697, 5850436.835026542656124 ], [ 734055.014891748083755, 5850512.781102733686566 ] ] ] ] } },
{ "type": "Feature", "properties": { "full_id": "534", "osm_id": null, "osm_type": null, "building": null, "house": null, "cuisine": null, "rooms": null, "phone": null, "operator": null, "guest_hous": null, "craft": null, "wheelchair": null, "payment_de": null, "payment_cr": null, "payment_ap": null, "drive_thro": null, "dispensing": null, "addr_postc": null, "reservatio": null, "internet_a": null, "internet_1": null, "air_condit": null, "man_made": null, "tourism": null, "payment_vi": null, "payment_ma": null, "payment_ca": null, "power": null, "location": null, "generator_": null, "generato_1": null, "generato_2": null, "generato_3": null, "roof_shape": null, "government": null, "designatio": null, "smoking": null, "atm": null, "sport": null, "leisure": null, "religion": null, "denominati": null, "height": null, "disused": null, "highway": null, "official_n": null, "healthcare": null, "alt_name": null, "addr_count": null, "amenity": null, "wikipedia": null, "wikidata": null, "layer": null, "aeroway": null, "opening_ho": null, "name_es": null, "wikimedia_": null, "start_date": null, "building_l": null, "addr_city": null, "shop": null, "brand_wiki": null, "brand": null, "addr_stree": null, "addr_house": null, "office": null, "name": "Unimarc", "type": null }, "geometry": { "type": "MultiPolygon", "coordinates": [ [ [ [ 734868.494719145470299, 5847676.841269511729479 ], [ 734906.596554049639963, 5847684.933630241081119 ], [ 734914.183163175592199, 5847662.173680111765862 ], [ 734929.693643677048385, 5847664.871129143983126 ], [ 734934.077029017731547, 5847658.63321315869689 ], [ 734857.030392274726182, 5847638.570874018594623 ], [ 734856.018857207382098, 5847649.529364254325628 ], [ 734863.774135906016454, 5847674.649579424411058 ], [ 734868.494719145470299, 5847676.841269511729479 ] ] ] ] } },
{ "type": "Feature", "properties": { "full_id": "4345", "osm_id": null, "osm_type": null, "building": null, "house": null, "cuisine": null, "rooms": null, "phone": null, "operator": null, "guest_hous": null, "craft": null, "wheelchair": null, "payment_de": null, "payment_cr": null, "payment_ap": null, "drive_thro": null, "dispensing": null, "addr_postc": null, "reservatio": null, "internet_a": null, "internet_1": null, "air_condit": null, "man_made": null, "tourism": null, "payment_vi": null, "payment_ma": null, "payment_ca": null, "power": null, "location": null, "generator_": null, "generato_1": null, "generato_2": null, "generato_3": null, "roof_shape": null, "government": null, "designatio": null, "smoking": null, "atm": null, "sport": null, "leisure": null, "religion": null, "denominati": null, "height": null, "disused": null, "highway": null, "official_n": null, "healthcare": null, "alt_name": null, "addr_count": null, "amenity": null, "wikipedia": null, "wikidata": null, "layer": null, "aeroway": null, "opening_ho": null, "name_es": null, "wikimedia_": null, "start_date": null, "building_l": null, "addr_city": null, "shop": null, "brand_wiki": null, "brand": null, "addr_stree": null, "addr_house": null, "office": null, "name": "Unico", "type": null }, "geometry": { "type": "MultiPolygon", "coordinates": [ [ [ [ 734066.275936830788851, 5848264.340874651446939 ], [ 734062.076627295464277, 5848215.523901302367449 ], [ 734016.146679252153262, 5848219.723210837692022 ], [ 734019.296161403646693, 5848268.277727340348065 ], [ 734066.275936830788851, 5848264.340874651446939 ] ] ] ] } }
]
}
